{
  "norad_id": 55244,
  "name": "YAOGAN-37",
  "history": [
    {
      "epoch": "2026-03-28T19:25:50.551968Z",
      "apogee_km": 529.7098551065137,
      "perigee_km": 503.96994104922305,
      "latitude_deg": -1.746492359908772e-05,
      "longitude_deg": 90.05642155222094,
      "height_km": 525.1546202475369,
      "semi_major_axis_km": 6894.976898077868,
      "eccentricity": 0.00186657,
      "inclination_deg": 43.1963,
      "raan_deg": 207.7418,
      "arg_perigee_deg": 228.566,
      "mean_anomaly_deg": 131.3587,
      "mean_motion_rev_day": 15.16364257
    },
    {
      "epoch": "2026-03-29T04:54:58.093920Z",
      "apogee_km": 529.7227399246767,
      "perigee_km": 503.9162966679978,
      "latitude_deg": 3.4092403777420006e-05,
      "longitude_deg": -54.80140130872873,
      "height_km": 524.7393665302403,
      "semi_major_axis_km": 6894.956518296337,
      "eccentricity": 0.0018714,
      "inclination_deg": 43.1965,
      "raan_deg": 205.5549,
      "arg_perigee_deg": 230.9881,
      "mean_anomaly_deg": 128.9304,
      "mean_motion_rev_day": 15.1637098
    }
  ]
}